{
    "links": {
        "self": "http://www.neowsapp.com/rest/v1/neo/3991645?api_key=iIulBulltgU6a56xZRHN4H3l9WmuAYTsLGpBGhQ2"
    },
    "id": "3991645",
    "neo_reference_id": "3991645",
    "name": "(2020 DS)",
    "designation": "2020 DS",
    "nasa_jpl_url": "http://ssd.jpl.nasa.gov/sbdb.cgi?sstr=3991645",
    "absolute_magnitude_h": 24.783,
    "estimated_diameter": {
        "kilometers": {
            "estimated_diameter_min": 0.0293734512,
            "estimated_diameter_max": 0.0656810336
        },
        "meters": {
            "estimated_diameter_min": 29.3734512104,
            "estimated_diameter_max": 65.6810336402
        },
        "miles": {
            "estimated_diameter_min": 0.0182518108,
            "estimated_diameter_max": 0.0408122896
        },
        "feet": {
            "estimated_diameter_min": 96.369593669,
            "estimated_diameter_max": 215.488962408
        }
    },
    "is_potentially_hazardous_asteroid": false,
    "close_approach_data": [
        {
            "close_approach_date": "2011-03-07",
            "close_approach_date_full": "2011-Mar-07 04:21",
            "epoch_date_close_approach": 1299471660000,
            "relative_velocity": {
                "kilometers_per_second": "9.4519225388",
                "kilometers_per_hour": "34026.9211396198",
                "miles_per_hour": "21143.0055270043"
            },
            "miss_distance": {
                "astronomical": "0.030371059",
                "lunar": "11.814341951",
                "kilometers": "4543445.73604433",
                "miles": "2823166.268418554"
            },
            "orbiting_body": "Mars"
        },
        {
            "close_approach_date": "2013-02-11",
            "close_approach_date_full": "2013-Feb-11 07:34",
            "epoch_date_close_approach": 1360568040000,
            "relative_velocity": {
                "kilometers_per_second": "13.8073346994",
                "kilometers_per_hour": "49706.4049178717",
                "miles_per_hour": "30885.6269891075"
            },
            "miss_distance": {
                "astronomical": "0.3698070574",
                "lunar": "143.8549453286",
                "kilometers": "55322348.098007738",
                "miles": "34375713.0851052644"
            },
            "orbiting_body": "Earth"
        },
        {
            "close_approach_date": "2016-07-31",
            "close_approach_date_full": "2016-Jul-31 12:12",
            "epoch_date_close_approach": 1469967120000,
            "relative_velocity": {
                "kilometers_per_second": "10.4693317393",
                "kilometers_per_hour": "37689.5942615232",
                "miles_per_hour": "23418.848167667"
            },
            "miss_distance": {
                "astronomical": "0.4240570721",
                "lunar": "164.9582010469",
                "kilometers": "63438034.744596427",
                "miles": "39418566.9270556126"
            },
            "orbiting_body": "Earth"
        },
        {
            "close_approach_date": "2020-02-18",
            "close_approach_date_full": "2020-Feb-18 12:58",
            "epoch_date_close_approach": 1582030680000,
            "relative_velocity": {
                "kilometers_per_second": "10.5452900391",
                "kilometers_per_hour": "37963.044140638",
                "miles_per_hour": "23588.759288387"
            },
            "miss_distance": {
                "astronomical": "0.1257194405",
                "lunar": "48.9048623545",
                "kilometers": "18807360.516391735",
                "miles": "11686351.921546543"
            },
            "orbiting_body": "Earth"
        },
        {
            "close_approach_date": "2023-08-25",
            "close_approach_date_full": "2023-Aug-25 16:08",
            "epoch_date_close_approach": 1692979680000,
            "relative_velocity": {
                "kilometers_per_second": "10.8012346181",
                "kilometers_per_hour": "38884.4446251449",
                "miles_per_hour": "24161.2817172185"
            },
            "miss_distance": {
                "astronomical": "0.3585599937",
                "lunar": "139.4798375493",
                "kilometers": "53639811.324733419",
                "miles": "33330233.2137384222"
            },
            "orbiting_body": "Earth"
        }
    ],
    "orbital_data": {
        "orbit_id": "4",
        "orbit_determination_date": "2020-03-04 05:52:19",
        "first_observation_date": "2020-02-16",
        "last_observation_date": "2020-03-01",
        "data_arc_in_days": 14,
        "observations_used": 26,
        "orbit_uncertainty": "8",
        "minimum_orbit_intersection": ".121947",
        "jupiter_tisserand_invariant": "5.095",
        "epoch_osculation": "2458898.5",
        "eccentricity": ".1164133027297176",
        "semi_major_axis": "1.243754854746934",
        "inclination": "20.28592368759307",
        "ascending_node_longitude": "150.2024630416668",
        "orbital_period": "506.6413243729782",
        "perihelion_distance": "1.098965244319723",
        "perihelion_argument": "333.4797890354018",
        "aphelion_distance": "1.388544465174145",
        "perihelion_time": "2458868.197681001757",
        "mean_anomaly": "21.53167204208679",
        "mean_motion": ".7105618564485195",
        "equinox": "J2000",
        "orbit_class": {
            "orbit_class_type": "AMO",
            "orbit_class_description": "Near-Earth asteroid orbits similar to that of 1221 Amor",
            "orbit_class_range": "1.017 AU < q (perihelion) < 1.3 AU"
        }
    },
    "is_sentry_object": false
}